OBJECT_NAME,OBJECT_ID,EPOCH,MEAN_MOTION,ECCENTRICITY,INCLINATION,RA_OF_ASC_NODE,ARG_OF_PERICENTER,MEAN_ANOMALY,EPHEMERIS_TYPE,CLASSIFICATION_TYPE,NORAD_CAT_ID,ELEMENT_SET_NO,REV_AT_EPOCH,BSTAR,MEAN_MOTION_DOT,MEAN_MOTION_DDOT
STARLINK-32122,2024-132H,2025-05-19T19:07:28.534656,15.30199535,.0001018,53.1604,337.5668,106.3481,253.7632,0,U,60285,999,4656,.49108E-4,.1096E-4,0
STARLINK-31656,2024-132J,2025-05-19T06:01:37.976736,15.30193453,.0000484,53.1606,339.8545,80.5349,279.5706,0,U,60286,999,4648,.18481E-4,.189E-5,0
STARLINK-32114,2024-132K,2025-05-18T20:14:40.655904,15.30191786,.0001122,53.1602,342.2762,80.2705,279.8423,0,U,60287,999,4641,.46058E-4,.1005E-4,0
STARLINK-31997,2024-132L,2025-05-19T19:54:24.426432,15.30205498,.0001149,53.1610,337.0564,74.4476,285.6651,0,U,60288,999,4656,.90881E-4,.2334E-4,0
STARLINK-32000,2024-132M,2025-05-19T19:21:09.923904,15.30200535,.0001277,53.1611,337.6294,63.5104,296.6027,0,U,60289,999,4656,-.52593E-4,-.1916E-4,0
STARLINK-32141,2024-132N,2025-05-19T06:25:56.563392,15.30193769,.0001032,53.1612,339.9531,94.3287,265.7832,0,U,60290,999,4648,.2277E-4,.315E-5,0
STARLINK-32142,2024-132P,2025-05-19T05:55:33.354912,15.30194003,.0001243,53.1623,339.8237,97.1343,262.9799,0,U,60291,999,4648,.25868E-4,.407E-5,0
STARLINK-32149,2024-132Q,2025-05-19T06:53:17.769408,15.30194121,.0001097,53.1624,340.0728,90.0329,270.0797,0,U,60292,999,4648,.30803E-4,.553E-5,0
STARLINK-32159,2024-132R,2025-05-18T23:36:18.484992,15.30200182,.0000934,53.1596,341.0195,70.4563,289.6539,0,U,60293,999,4644,.59246E-4,.1396E-4,0
STARLINK-32150,2024-132S,2025-05-19T19:30:16.527456,15.30187743,.0001301,53.1614,337.6644,85.1871,274.9278,0,U,60294,999,4656,.74383E-4,.1844E-4,0
STARLINK-32126,2024-132T,2025-05-18T20:17:43.500768,15.30185375,.0001349,53.1609,342.2923,99.1595,260.9558,0,U,60295,999,4641,.99092E-5,-.66E-6,0
STARLINK-32143,2024-132U,2025-05-18T23:12:09.175968,15.30190376,.0001215,53.1601,341.6274,76.0864,284.0272,0,U,60296,999,4643,.26183E-4,.416E-5,0
STARLINK-32034,2024-132V,2025-05-19T19:15:05.504256,15.30198475,.0001502,53.1620,337.5957,101.8444,258.2725,0,U,60297,999,4655,-.77101E-4,-.2642E-4,0
STARLINK-32124,2024-132W,2025-05-19T07:00:53.453376,15.30198514,.0001217,53.1610,340.1053,77.9268,282.1869,0,U,60298,999,4648,.47869E-4,.1059E-4,0
STARLINK-32151,2024-132X,2025-05-19T21:10:52.358016,15.30192320,.000107,53.1608,308.6949,74.1671,285.9448,0,U,60299,999,4696,.33446E-6,-.349E-5,0
STARLINK-32134,2024-132Y,2025-05-19T06:28:58.807776,15.30195636,.0000965,53.1611,339.9644,94.3682,265.7429,0,U,60300,999,4648,.16001E-4,.115E-5,0
STARLINK-11147 [DTC],2024-133A,2025-05-19T17:51:42.025824,15.69738258,.0001057,53.1589,155.4884,74.5029,285.6105,0,U,60301,999,4759,.18438E-4,.1648E-4,0
STARLINK-11128 [DTC],2024-133B,2025-05-19T17:44:41.135136,15.69703111,.0001234,53.1590,155.4590,104.6484,255.4671,0,U,60302,999,4754,-.16093E-4,-.2537E-4,0
STARLINK-11227 [DTC],2024-133C,2025-05-19T09:59:11.809824,15.69709773,.0001141,53.1582,156.9986,76.6147,283.4998,0,U,60303,999,4759,-.97296E-5,-.1767E-4,0
STARLINK-11224 [DTC],2024-133D,2025-05-19T08:20:26.691360,15.69679236,.0001422,53.1592,157.2748,107.4176,252.6997,0,U,60304,999,4758,.43891E-4,.4725E-4,0
STARLINK-11115 [DTC],2024-133E,2025-05-19T08:13:21.870336,15.69725248,.0001089,53.1575,157.2406,80.1175,279.9966,0,U,60305,999,4750,.26377E-5,-.269E-5,0
STARLINK-11109 [DTC],2024-133F,2025-05-19T09:37:59.367648,15.69720534,.000101,53.1574,156.8963,84.8581,275.2552,0,U,60306,999,4751,-.37383E-5,-.1042E-4,0
STARLINK-11223 [DTC],2024-133G,2025-05-19T18:33:59.307840,15.69703129,.0001205,53.1585,154.9504,59.1371,300.9765,0,U,60307,999,4755,-.25116E-4,-.3629E-4,0
STARLINK-11192 [DTC],2024-133H,2025-05-19T07:59:14.277696,15.69716868,.0001196,53.1590,157.1764,86.0642,274.0512,0,U,60308,999,4750,.18619E-4,.1668E-4,0
STARLINK-11213 [DTC],2024-133J,2025-05-19T07:45:07.211232,15.69718475,.0001617,53.1589,157.1116,49.1576,310.9581,0,U,60309,999,4750,-.71153E-5,-.1452E-4,0
STARLINK-11200 [DTC],2024-133K,2025-05-19T18:19:51.024864,15.69709033,.0001232,53.1598,154.8810,82.8204,277.2954,0,U,60310,999,4762,-.11668E-4,-.2002E-4,0
STARLINK-11208 [DTC],2024-133L,2025-05-19T22:00:00.999936,15.79983355,.0008497,53.1464,153.3093,38.7315,134.3458,0,U,60311,999,4746,.22138E-3,.41546E-3,0
STARLINK-11206 [DTC],2024-133M,2025-05-19T10:27:26.836992,15.69706374,.0001217,53.1592,157.1172,102.6210,257.4944,0,U,60312,999,4751,-.89095E-5,-.1668E-4,0
STARLINK-11205 [DTC],2024-133N,2025-05-19T17:58:48.171360,15.69711102,.0001072,53.1588,155.5123,84.8329,275.2811,0,U,60313,999,4745,-.17023E-4,-.265E-4,0
STARLINK-32191,2024-133P,2025-05-19T12:28:51.491424,15.30170734,.0001184,53.1602,223.3080,85.2124,274.9012,0,U,60314,999,4660,-.12264E-3,-.3986E-4,0
