STARLINK-32122          
1 60285U 24132H   25139.79685804  .00001096  00000+0  49108-4 0  9991
2 60285  53.1604 337.5668 0001018 106.3481 253.7632 15.30199535 46563
STARLINK-31656          
1 60286U 24132J   25139.25113399  .00000189  00000+0  18481-4 0  9990
2 60286  53.1606 339.8545 0000484  80.5349 279.5706 15.30193453 46489
STARLINK-32114          
1 60287U 24132K   25138.84352611  .00001005  00000+0  46058-4 0  9996
2 60287  53.1602 342.2762 0001122  80.2705 279.8423 15.30191786 46417
STARLINK-31997          
1 60288U 24132L   25139.82944938  .00002334  00000+0  90881-4 0  9994
2 60288  53.1610 337.0564 0001149  74.4476 285.6651 15.30205498 46568
STARLINK-32000          
1 60289U 24132M   25139.80636486 -.00001916  00000+0 -52593-4 0  9994
2 60289  53.1611 337.6294 0001277  63.5104 296.6027 15.30200535 46561
STARLINK-32141          
1 60290U 24132N   25139.26801578  .00000315  00000+0  22770-4 0  9996
2 60290  53.1612 339.9531 0001032  94.3287 265.7832 15.30193769 46488
STARLINK-32142          
1 60291U 24132P   25139.24691383  .00000407  00000+0  25868-4 0  9999
2 60291  53.1623 339.8237 0001243  97.1343 262.9799 15.30194003 46484
STARLINK-32149          
1 60292U 24132Q   25139.28701122  .00000553  00000+0  30803-4 0  9994
2 60292  53.1624 340.0728 0001097  90.0329 270.0797 15.30194121 46487
STARLINK-32159          
1 60293U 24132R   25138.98354728  .00001396  00000+0  59246-4 0  9995
2 60293  53.1596 341.0195 0000934  70.4563 289.6539 15.30200182 46447
STARLINK-32150          
1 60294U 24132S   25139.81269129  .00001844  00000+0  74383-4 0  9996
2 60294  53.1614 337.6644 0001301  85.1871 274.9278 15.30187743 46560
STARLINK-32126          
1 60295U 24132T   25138.84564237 -.00000066  00000+0  99092-5 0  9998
2 60295  53.1609 342.2923 0001349  99.1595 260.9558 15.30185375 46416
STARLINK-32143          
1 60296U 24132U   25138.96677287  .00000416  00000+0  26183-4 0  9990
2 60296  53.1601 341.6274 0001215  76.0864 284.0272 15.30190376 46435
STARLINK-32034          
1 60297U 24132V   25139.80214704 -.00002642  00000+0 -77101-4 0  9997
2 60297  53.1620 337.5957 0001502 101.8444 258.2725 15.30198475 46556
STARLINK-32124          
1 60298U 24132W   25139.29228534  .00001059  00000+0  47869-4 0  9994
2 60298  53.1610 340.1053 0001217  77.9268 282.1869 15.30198514 46484
STARLINK-32151          
1 60299U 24132X   25139.88255044 -.00000349  00000+0  33446-6 0  9996
2 60299  53.1608 308.6949 0001070  74.1671 285.9448 15.30192320 46965
STARLINK-32134          
1 60300U 24132Y   25139.27012509  .00000115  00000+0  16001-4 0  9995
2 60300  53.1611 339.9644 0000965  94.3682 265.7429 15.30195636 46484
STARLINK-11147 [DTC]    
1 60301U 24133A   25139.74423641  .00001648  00000+0  18438-4 0  9990
2 60301  53.1589 155.4884 0001057  74.5029 285.6105 15.69738258 47594
STARLINK-11128 [DTC]    
1 60302U 24133B   25139.73936499 -.00002537  00000+0 -16093-4 0  9995
2 60302  53.1590 155.4590 0001234 104.6484 255.4671 15.69703111 47546
STARLINK-11227 [DTC]    
1 60303U 24133C   25139.41610891 -.00001767  00000+0 -97296-5 0  9995
2 60303  53.1582 156.9986 0001141  76.6147 283.4998 15.69709773 47592
STARLINK-11224 [DTC]    
1 60304U 24133D   25139.34753115  .00004725  00000+0  43891-4 0  9991
2 60304  53.1592 157.2748 0001422 107.4176 252.6997 15.69679236 47587
STARLINK-11115 [DTC]    
1 60305U 24133E   25139.34261424 -.00000269  00000+0  26377-5 0  9990
2 60305  53.1575 157.2406 0001089  80.1175 279.9966 15.69725248 47500
STARLINK-11109 [DTC]    
1 60306U 24133F   25139.40138157 -.00001042  00000+0 -37383-5 0  9994
2 60306  53.1574 156.8963 0001010  84.8581 275.2552 15.69720534 47513
STARLINK-11223 [DTC]    
1 60307U 24133G   25139.77360310 -.00003629  00000+0 -25116-4 0  9996
2 60307  53.1585 154.9504 0001205  59.1371 300.9765 15.69703129 47551
STARLINK-11192 [DTC]    
1 60308U 24133H   25139.33280414  .00001668  00000+0  18619-4 0  9994
2 60308  53.1590 157.1764 0001196  86.0642 274.0512 15.69716868 47500
STARLINK-11213 [DTC]    
1 60309U 24133J   25139.32300013 -.00001452  00000+0 -71153-5 0  9998
2 60309  53.1589 157.1116 0001617  49.1576 310.9581 15.69718475 47506
STARLINK-11200 [DTC]    
1 60310U 24133K   25139.76378501 -.00002002  00000+0 -11668-4 0  9991
2 60310  53.1598 154.8810 0001232  82.8204 277.2954 15.69709033 47620
STARLINK-11208 [DTC]    
1 60311U 24133L   25139.91667824  .00041546  00000+0  22138-3 0  9995
2 60311  53.1464 153.3093 0008497  38.7315 134.3458 15.79983355 47469
STARLINK-11206 [DTC]    
1 60312U 24133M   25139.43572728 -.00001668  00000+0 -89095-5 0  9991
2 60312  53.1592 157.1172 0001217 102.6210 257.4944 15.69706374 47516
STARLINK-11205 [DTC]    
1 60313U 24133N   25139.74916865 -.00002650  00000+0 -17023-4 0  9993
2 60313  53.1588 155.5123 0001072  84.8329 275.2811 15.69711102 47450
STARLINK-32191          
1 60314U 24133P   25139.52004041 -.00003986  00000+0 -12264-3 0  9998
2 60314  53.1602 223.3080 0001184  85.2124 274.9012 15.30170734 46609
